{
  "norad_id": 57910,
  "name": "STARLINK-30453",
  "history": [
    {
      "epoch": "2026-03-28T17:20:41.584992",
      "apogee_km": 486.83528558724265,
      "perigee_km": 484.31355801087284,
      "latitude_deg": -35.49569880021939,
      "longitude_deg": 40.37953887996264,
      "semi_major_axis_km": 6863.7114217990575,
      "eccentricity": 0.0001837,
      "inclination_deg": 43.002,
      "raan_deg": 203.5987,
      "arg_perigee_deg": 270.8565,
      "mean_anomaly_deg": 89.2075,
      "mean_motion_rev_day": 15.26737027
    }
  ]
}